start=new Date('2022-04-21T00:00:00.000Z').valueOf();
sats=[{"ELEMENT_SET_NO":"999","EPOCH":"2022-04-20T19:05:08.796480","TIME_SYSTEM":"UTC","MEAN_MOTION_DDOT":"0.0000000000000","MEAN_ELEMENT_THEORY":"SGP4","CLASSIFICATION_TYPE":"U","COUNTRY_CODE":"US","PERIAPSIS":"546.095","TLE_LINE2":"2 45531  53.0534 356.2911 0001566  84.4133 275.7035 15.06411222111239","OBJECT_NAME":"STARLINK-1329","OBJECT_TYPE":"PAYLOAD","CENTER_NAME":"EARTH","LAUNCH_DATE":"2020-04-22","MEAN_MOTION":"15.06411222","REF_FRAME":"TEME","APOAPSIS":"548.264","DECAY_DATE":null,"TLE_LINE1":"1 45531U 20025A   22110.79524070  .00005921  00000-0  41593-3 0  9999","ECCENTRICITY":"0.00015660","BSTAR":"0.00041593000000","EPHEMERIS_TYPE":"0","FILE":"3409979","PERIOD":"95.591","NORAD_CAT_ID":"45531","ARG_OF_PERICENTER":"84.4133","REV_AT_EPOCH":"11123","INCLINATION":"53.0534","MEAN_ANOMALY":"275.7035","RA_OF_ASC_NODE":"356.2911","OBJECT_ID":"2020-025A","SEMIMAJOR_AXIS":"6925.314","SITE":"AFETR","RCS_SIZE":"LARGE","MEAN_MOTION_DOT":"0.00005921","GP_ID":"201711753"},{"TLE_LINE1":"1 45532U 20025B   22110.93899800 -.00000334  00000-0 -35622-5 0  9995","DECAY_DATE":null,"APOAPSIS":"548.172","REF_FRAME":"TEME","MEAN_MOTION":"15.06391799","LAUNCH_DATE":"2020-04-22","CENTER_NAME":"EARTH","OBJECT_TYPE":"PAYLOAD","TLE_LINE2":"2 45532  53.0560 355.6408 0001348  90.2208 269.8935 15.06391799111250","OBJECT_NAME":"STARLINK-1338","COUNTRY_CODE":"US","CLASSIFICATION_TYPE":"U","PERIAPSIS":"546.305","MEAN_ELEMENT_THEORY":"SGP4","MEAN_MOTION_DDOT":"0.0000000000000","TIME_SYSTEM":"UTC","EPOCH":"2022-04-20T22:32:09.427200","ELEMENT_SET_NO":"999","GP_ID":"201712004","RCS_SIZE":"LARGE","SITE":"AFETR","MEAN_MOTION_DOT":"-0.00000334","SEMIMAJOR_AXIS":"6925.374","OBJECT_ID":"2020-025B","MEAN_ANOMALY":"269.8935","RA_OF_ASC_NODE":"355.6408","INCLINATION":"53.0560","REV_AT_EPOCH":"11125","ARG_OF_PERICENTER":"90.2208","NORAD_CAT_ID":"45532","PERIOD":"95.593","FILE":"3409979","EPHEMERIS_TYPE":"0","BSTAR":"-0.00000356220000","ECCENTRICITY":"0.00013480"},{"MEAN_MOTION_DDOT":"0.0000000000000","ELEMENT_SET_NO":"999","EPOCH":"2022-04-20T21:14:50.967168","TIME_SYSTEM":"UTC","TLE_LINE2":"2 45533  53.0471 326.9701 0003574 183.6807 176.4172 15.42833371111651","OBJECT_NAME":"STARLINK-1339","COUNTRY_CODE":"US","PERIAPSIS":"435.318","CLASSIFICATION_TYPE":"U","MEAN_ELEMENT_THEORY":"SGP4","MEAN_MOTION":"15.42833371","CENTER_NAME":"EARTH","LAUNCH_DATE":"2020-04-22","OBJECT_TYPE":"PAYLOAD","TLE_LINE1":"1 45533U 20025C   22110.88531212  .00116793  00000-0  25930-2 0  9993","APOAPSIS":"440.190","REF_FRAME":"TEME","DECAY_DATE":null,"BSTAR":"0.00259300000000","ECCENTRICITY":"0.00035740","NORAD_CAT_ID":"45533","PERIOD":"93.335","FILE":"3409979","EPHEMERIS_TYPE":"0","INCLINATION":"53.0471","MEAN_ANOMALY":"176.4172","RA_OF_ASC_NODE":"326.9701","ARG_OF_PERICENTER":"183.6807","REV_AT_EPOCH":"11165","GP_ID":"201712755","SITE":"AFETR","RCS_SIZE":"LARGE","MEAN_MOTION_DOT":"0.00116793","OBJECT_ID":"2020-025C","SEMIMAJOR_AXIS":"6815.889"},{"REV_AT_EPOCH":"11117","ARG_OF_PERICENTER":"75.2930","MEAN_ANOMALY":"284.8226","RA_OF_ASC_NODE":"357.9696","INCLINATION":"53.0543","OBJECT_ID":"2020-025D","SEMIMAJOR_AXIS":"6925.325","SITE":"AFETR","RCS_SIZE":"LARGE","MEAN_MOTION_DOT":"0.00000584","GP_ID":"201680112","ECCENTRICITY":"0.00015080","BSTAR":"0.00005809300000","EPHEMERIS_TYPE":"0","FILE":"3409639","PERIOD":"95.592","NORAD_CAT_ID":"45534","OBJECT_TYPE":"PAYLOAD","LAUNCH_DATE":"2020-04-22","CENTER_NAME":"EARTH","MEAN_MOTION":"15.06407605","DECAY_DATE":null,"REF_FRAME":"TEME","APOAPSIS":"548.235","TLE_LINE1":"1 45534U 20025D   22110.41928460  .00000584  00000-0  58093-4 0  9996","EPOCH":"2022-04-20T10:03:46.189440","TIME_SYSTEM":"UTC","ELEMENT_SET_NO":"999","MEAN_MOTION_DDOT":"0.0000000000000","MEAN_ELEMENT_THEORY":"SGP4","COUNTRY_CODE":"US","PERIAPSIS":"546.146","CLASSIFICATION_TYPE":"U","TLE_LINE2":"2 45534  53.0543 357.9696 0001508  75.2930 284.8226 15.06407605111175","OBJECT_NAME":"STARLINK-1341"},{"MEAN_ELEMENT_THEORY":"SGP4","TLE_LINE2":"2 45535  53.0539 356.1002 0001571  68.2122 291.9034 15.06404835111244","OBJECT_NAME":"STARLINK-1350","COUNTRY_CODE":"US","CLASSIFICATION_TYPE":"U","PERIAPSIS":"546.111","ELEMENT_SET_NO":"999","EPOCH":"2022-04-20T20:03:32.422752","TIME_SYSTEM":"UTC","MEAN_MOTION_DDOT":"0.0000000000000","APOAPSIS":"548.287","REF_FRAME":"TEME","DECAY_DATE":null,"TLE_LINE1":"1 45535U 20025E   22110.83579193  .00000067  00000-0  23372-4 0  9996","CENTER_NAME":"EARTH","LAUNCH_DATE":"2020-04-22","OBJECT_TYPE":"PAYLOAD","MEAN_MOTION":"15.06404835","EPHEMERIS_TYPE":"0","NORAD_CAT_ID":"45535","PERIOD":"95.592","FILE":"3409979","ECCENTRICITY":"0.00015710","BSTAR":"0.00002337200000","MEAN_MOTION_DOT":"0.00000067","SITE":"AFETR","RCS_SIZE":"LARGE","OBJECT_ID":"2020-025E","SEMIMAJOR_AXIS":"6925.334","GP_ID":"201711253","ARG_OF_PERICENTER":"68.2122","REV_AT_EPOCH":"11124","INCLINATION":"53.0539","MEAN_ANOMALY":"291.9034","RA_OF_ASC_NODE":"356.1002"},{"INCLINATION":"53.0552","MEAN_ANOMALY":"282.0889","RA_OF_ASC_NODE":"358.1687","ARG_OF_PERICENTER":"78.0289","REV_AT_EPOCH":"11116","GP_ID":"201679111","SITE":"AFETR","RCS_SIZE":"LARGE","MEAN_MOTION_DOT":"0.00004557","OBJECT_ID":"2020-025F","SEMIMAJOR_AXIS":"6925.339","BSTAR":"0.00032457000000","ECCENTRICITY":"0.00016900","NORAD_CAT_ID":"45536","FILE":"3409639","PERIOD":"95.592","EPHEMERIS_TYPE":"0","MEAN_MOTION":"15.06403185","CENTER_NAME":"EARTH","LAUNCH_DATE":"2020-04-22","OBJECT_TYPE":"PAYLOAD","TLE_LINE1":"1 45536U 20025F   22110.37504818  .00004557  00000-0  32457-3 0  9999","APOAPSIS":"548.374","REF_FRAME":"TEME","DECAY_DATE":null,"MEAN_MOTION_DDOT":"0.0000000000000","ELEMENT_SET_NO":"999","EPOCH":"2022-04-20T09:00:04.162752","TIME_SYSTEM":"UTC","OBJECT_NAME":"STARLINK-1352","TLE_LINE2":"2 45536  53.0552 358.1687 0001690  78.0289 282.0889 15.06403185111163","COUNTRY_CODE":"US","CLASSIFICATION_TYPE":"U","PERIAPSIS":"546.033","MEAN_ELEMENT_THEORY":"SGP4"},{"COUNTRY_CODE":"US","CLASSIFICATION_TYPE":"U","PERIAPSIS":"500.982","TLE_LINE2":"2 45537  52.9994 319.7568 0003004 188.5803 171.5141 15.20925736111679","OBJECT_NAME":"STARLINK-1353","MEAN_ELEMENT_THEORY":"SGP4","MEAN_MOTION_DDOT":"0.0000000000000","ELEMENT_SET_NO":"999","EPOCH":"2022-04-20T06:51:50.936544","TIME_SYSTEM":"UTC","TLE_LINE1":"1 45537U 20025G   22110.28600621  .00027828  00000-0  12516-2 0  9998","REF_FRAME":"TEME","APOAPSIS":"505.116","DECAY_DATE":null,"MEAN_MOTION":"15.20925736","OBJECT_TYPE":"PAYLOAD","CENTER_NAME":"EARTH","LAUNCH_DATE":"2020-04-22","FILE":"3409639","PERIOD":"94.679","NORAD_CAT_ID":"45537","EPHEMERIS_TYPE":"0","BSTAR":"0.00125160000000","ECCENTRICITY":"0.00030040","GP_ID":"201679363","SEMIMAJOR_AXIS":"6881.184","OBJECT_ID":"2020-025G","MEAN_MOTION_DOT":"0.00027828","SITE":"AFETR","RCS_SIZE":"LARGE","INCLINATION":"52.9994","MEAN_ANOMALY":"171.5141","RA_OF_ASC_NODE":"319.7568","ARG_OF_PERICENTER":"188.5803","REV_AT_EPOCH":"11167"},{"EPHEMERIS_TYPE":"0","PERIOD":"95.592","FILE":"3409979","NORAD_CAT_ID":"45538","ECCENTRICITY":"0.00012490","BSTAR":"0.00001694200000","SEMIMAJOR_AXIS":"6925.340","OBJECT_ID":"2020-025H","RCS_SIZE":"LARGE","SITE":"AFETR","MEAN_MOTION_DOT":"-0.00000029","GP_ID":"201711003","REV_AT_EPOCH":"11123","ARG_OF_PERICENTER":"87.5164","MEAN_ANOMALY":"272.5968","RA_OF_ASC_NODE":"356.2682","INCLINATION":"53.0553","MEAN_ELEMENT_THEORY":"SGP4","COUNTRY_CODE":"US","PERIAPSIS":"546.340","CLASSIFICATION_TYPE":"U","TLE_LINE2":"2 45538  53.0553 356.2682 0001249  87.5164 272.5968 15.06402805111235","OBJECT_NAME":"STARLINK-1362","EPOCH":"2022-04-20T19:10:27.120000","TIME_SYSTEM":"UTC","ELEMENT_SET_NO":"999","MEAN_MOTION_DDOT":"0.0000000000000","DECAY_DATE":null,"APOAPSIS":"548.070","REF_FRAME":"TEME","TLE_LINE1":"1 45538U 20025H   22110.79892500 -.00000029  00000-0  16942-4 0  9998","OBJECT_TYPE":"PAYLOAD","LAUNCH_DATE":"2020-04-22","CENTER_NAME":"EARTH","MEAN_MOTION":"15.06402805"},{"MEAN_MOTION":"15.76719458","CENTER_NAME":"EARTH","LAUNCH_DATE":"2020-04-22","OBJECT_TYPE":"PAYLOAD","TLE_LINE1":"1 45539U 20025J   22110.68156093 -.00006208  00000-0 -33791-4 0  9994","REF_FRAME":"TEME","APOAPSIS":"345.554","DECAY_DATE":null,"MEAN_MOTION_DDOT":"0.0000000000000","ELEMENT_SET_NO":"999","EPOCH":"2022-04-20T16:21:26.864352","TIME_SYSTEM":"UTC","TLE_LINE2":"2 45539  53.0458 183.8617 0008647 282.0566  77.9484 15.76719458113615","OBJECT_NAME":"STARLINK-1367","COUNTRY_CODE":"US","CLASSIFICATION_TYPE":"U","PERIAPSIS":"333.936","MEAN_ELEMENT_THEORY":"SGP4","INCLINATION":"53.0458","RA_OF_ASC_NODE":"183.8617","MEAN_ANOMALY":"77.9484","ARG_OF_PERICENTER":"282.0566","REV_AT_EPOCH":"11361","GP_ID":"201711754","RCS_SIZE":"LARGE","SITE":"AFETR","MEAN_MOTION_DOT":"-0.00006208","SEMIMAJOR_AXIS":"6717.880","OBJECT_ID":"2020-025J","BSTAR":"-0.00003379100000","ECCENTRICITY":"0.00086470","NORAD_CAT_ID":"45539","FILE":"3409979","PERIOD":"91.329","EPHEMERIS_TYPE":"0"},{"GP_ID":"201678612","SITE":"AFETR","MEAN_MOTION_DOT":"0.00002124","RCS_SIZE":"LARGE","SEMIMAJOR_AXIS":"6925.343","OBJECT_ID":"2020-025K","INCLINATION":"53.0563","MEAN_ANOMALY":"295.2007","RA_OF_ASC_NODE":"358.1492","ARG_OF_PERICENTER":"64.9150","REV_AT_EPOCH":"11116","NORAD_CAT_ID":"45540","PERIOD":"95.592","FILE":"3409639","EPHEMERIS_TYPE":"0","BSTAR":"0.00016143000000","ECCENTRICITY":"0.00016250","TLE_LINE1":"1 45540U 20025K   22110.37873726  .00002124  00000-0  16143-3 0  9993","APOAPSIS":"548.333","REF_FRAME":"TEME","DECAY_DATE":null,"MEAN_MOTION":"15.06401829","CENTER_NAME":"EARTH","LAUNCH_DATE":"2020-04-22","OBJECT_TYPE":"PAYLOAD","TLE_LINE2":"2 45540  53.0563 358.1492 0001625  64.9150 295.2007 15.06401829111164","OBJECT_NAME":"STARLINK-1368","CLASSIFICATION_TYPE":"U","COUNTRY_CODE":"US","PERIAPSIS":"546.083","MEAN_ELEMENT_THEORY":"SGP4","MEAN_MOTION_DDOT":"0.0000000000000","ELEMENT_SET_NO":"999","TIME_SYSTEM":"UTC","EPOCH":"2022-04-20T09:05:22.899264"}];
